[{"OBJECT_NAME":"KUIPER-00083","OBJECT_ID":"2025-151P","EPOCH":"2026-03-09T19:59:28.461120","MEAN_MOTION":14.79940147,"ECCENTRICITY":8.677e-5,"INCLINATION":51.9009,"RA_OF_ASC_NODE":294.9578,"ARG_OF_PERICENTER":102.892,"MEAN_ANOMALY":257.2139,"EPHEMERIS_TYPE":0,"CLASSIFICATION_TYPE":"U","NORAD_CAT_ID":64829,"ELEMENT_SET_NO":999,"REV_AT_EPOCH":3658,"BSTAR":0.00062657411,"MEAN_MOTION_DOT":4.559e-5,"MEAN_MOTION_DDOT":0},{"OBJECT_NAME":"SL-14 R\/B","OBJECT_ID":"1986-046B","EPOCH":"2026-03-09T12:54:35.152704","MEAN_MOTION":14.85590147,"ECCENTRICITY":0.00219619,"INCLINATION":82.4783,"RA_OF_ASC_NODE":80.3252,"ARG_OF_PERICENTER":225.8935,"MEAN_ANOMALY":134.0474,"EPHEMERIS_TYPE":0,"CLASSIFICATION_TYPE":"U","NORAD_CAT_ID":16792,"ELEMENT_SET_NO":999,"REV_AT_EPOCH":12638,"BSTAR":6.3515191e-5,"MEAN_MOTION_DOT":5.75e-6,"MEAN_MOTION_DDOT":0}]
